[{"OBJECT_NAME":"OBJECT V","OBJECT_ID":"2023-085V","EPOCH":"2026-03-09T21:44:00.165408","MEAN_MOTION":15.30745852,"ECCENTRICITY":0.00069081,"INCLINATION":97.4843,"RA_OF_ASC_NODE":179.3833,"ARG_OF_PERICENTER":71.0503,"MEAN_ANOMALY":289.1485,"EPHEMERIS_TYPE":0,"CLASSIFICATION_TYPE":"U","NORAD_CAT_ID":57023,"ELEMENT_SET_NO":999,"REV_AT_EPOCH":15149,"BSTAR":0.00067780507,"MEAN_MOTION_DOT":0.00020109,"MEAN_MOTION_DDOT":0},{"OBJECT_NAME":"STARLINK-33839","OBJECT_ID":"2025-110T","EPOCH":"2026-03-09T03:52:11.678592","MEAN_MOTION":15.30198575,"ECCENTRICITY":0.00010831,"INCLINATION":53.1613,"RA_OF_ASC_NODE":29.0665,"ARG_OF_PERICENTER":85.5068,"MEAN_ANOMALY":274.6057,"EPHEMERIS_TYPE":0,"CLASSIFICATION_TYPE":"U","NORAD_CAT_ID":64113,"ELEMENT_SET_NO":999,"REV_AT_EPOCH":4580,"BSTAR":0.0010355119,"MEAN_MOTION_DOT":0.00030434,"MEAN_MOTION_DDOT":0}]
